[{"OBJECT_NAME":"STARLINK-34968","OBJECT_ID":"2025-184D","EPOCH":"2026-03-09T17:00:58.645440","MEAN_MOTION":15.05647443,"ECCENTRICITY":9.017e-5,"INCLINATION":97.6025,"RA_OF_ASC_NODE":122.6783,"ARG_OF_PERICENTER":93.8917,"MEAN_ANOMALY":266.2413,"EPHEMERIS_TYPE":0,"CLASSIFICATION_TYPE":"U","NORAD_CAT_ID":65276,"ELEMENT_SET_NO":999,"REV_AT_EPOCH":3130,"BSTAR":0.00015362574,"MEAN_MOTION_DOT":2.156e-5,"MEAN_MOTION_DDOT":0},{"OBJECT_NAME":"SL-8 DEB","OBJECT_ID":"1976-098E","EPOCH":"2026-03-09T08:07:12.416160","MEAN_MOTION":15.06605169,"ECCENTRICITY":0.00102283,"INCLINATION":74.028,"RA_OF_ASC_NODE":26.283,"ARG_OF_PERICENTER":218.296,"MEAN_ANOMALY":294.2383,"EPHEMERIS_TYPE":0,"CLASSIFICATION_TYPE":"U","NORAD_CAT_ID":18504,"ELEMENT_SET_NO":999,"REV_AT_EPOCH":18055,"BSTAR":0.0011587434,"MEAN_MOTION_DOT":0.00017191,"MEAN_MOTION_DDOT":0}]
